{
  "type": "FeatureCollection",
  "features": [
    {
      "type": "Feature",
      "properties": {
        "norad_id": 66894,
        "name": "STARLINK-35718",
        "group": "last-30-days",
        "lat": 53.13230542354609,
        "lon": 152.7599519567168,
        "alt_km": 294.15697228738736,
        "timestamp": "2025-12-14T18:52:54.244416+00:00",
        "meta_object_name": "STARLINK-35718",
        "meta_object_id": "2025-283S",
        "meta_epoch": "2025-12-13T20:00:03.000384",
        "meta_mean_motion": 15.92508268,
        "meta_eccentricity": 0.0001009,
        "meta_inclination": 53.1549,
        "meta_ra_of_asc_node": 68.3453,
        "meta_arg_of_pericenter": 46.803,
        "meta_mean_anomaly": 338.116,
        "meta_ephemeris_type": 0,
        "meta_classification_type": "U",
        "meta_norad_cat_id": 66894,
        "meta_element_set_no": 999,
        "meta_rev_at_epoch": 260,
        "meta_bstar": -0.003912596,
        "meta_mean_motion_dot": -0.01361775,
        "meta_mean_motion_ddot": 0.00053898973,
        "tle_line1": "1 66894U 25283S   25347.83336806 -.01361775  53899-3 -39126-2 0  9993",
        "tle_line2": "2 66894  53.1549  68.3453 0001009  46.8030 338.1160 15.92508268  2608"
      },
      "geometry": {
        "type": "Point",
        "coordinates": [
          152.7599519567168,
          53.13230542354609
        ]
      }
    },
    {
      "type": "Feature",
      "properties": {
        "norad_id": 66895,
        "name": "STARLINK-35971",
        "group": "last-30-days",
        "lat": 52.86886174141988,
        "lon": 161.41769451091665,
        "alt_km": 294.11272581011053,
        "timestamp": "2025-12-14T18:52:54.244426+00:00",
        "meta_object_name": "STARLINK-35971",
        "meta_object_id": "2025-283T",
        "meta_epoch": "2025-12-13T20:00:03.000384",
        "meta_mean_motion": 15.92637642,
        "meta_eccentricity": 8.654e-05,
        "meta_inclination": 53.1543,
        "meta_ra_of_asc_node": 68.3345,
        "meta_arg_of_pericenter": 58.7683,
        "meta_mean_anomaly": 330.9942,
        "meta_ephemeris_type": 0,
        "meta_classification_type": "U",
        "meta_norad_cat_id": 66895,
        "meta_element_set_no": 999,
        "meta_rev_at_epoch": 260,
        "meta_bstar": -0.003961396,
        "meta_mean_motion_dot": -0.01387771,
        "meta_mean_motion_ddot": 0.00055860878,
        "tle_line1": "1 66895U 25283T   25347.83336806 -.01387771  55861-3 -39614-2 0  9991",
        "tle_line2": "2 66895  53.1543  68.3345 0000865  58.7683 330.9942 15.92637642  2605"
      },
      "geometry": {
        "type": "Point",
        "coordinates": [
          161.41769451091665,
          52.86886174141988
        ]
      }
    },
    {
      "type": "Feature",
      "properties": {
        "norad_id": 66896,
        "name": "STARLINK-35791",
        "group": "last-30-days",
        "lat": 53.071596250461155,
        "lon": 157.34805484823997,
        "alt_km": 294.19286111227757,
        "timestamp": "2025-12-14T18:52:54.244436+00:00",
        "meta_object_name": "STARLINK-35791",
        "meta_object_id": "2025-283U",
        "meta_epoch": "2025-12-13T20:00:03.000384",
        "meta_mean_motion": 15.92578494,
        "meta_eccentricity": 7.95e-05,
        "meta_inclination": 53.1545,
        "meta_ra_of_asc_node": 68.3394,
        "meta_arg_of_pericenter": 62.9744,
        "meta_mean_anomaly": 324.4956,
        "meta_ephemeris_type": 0,
        "meta_classification_type": "U",
        "meta_norad_cat_id": 66896,
        "meta_element_set_no": 999,
        "meta_rev_at_epoch": 260,
        "meta_bstar": -0.0039361419,
        "meta_mean_motion_dot": -0.01374818,
        "meta_mean_motion_ddot": 0.0005488158,
        "tle_line1": "1 66896U 25283U   25347.83336806 -.01374818  54882-3 -39361-2 0  9991",
        "tle_line2": "2 66896  53.1545  68.3394 0000795  62.9744 324.4956 15.92578494  2601"
      },
      "geometry": {
        "type": "Point",
        "coordinates": [
          157.34805484823997,
          53.071596250461155
        ]
      }
    },
    {
      "type": "Feature",
      "properties": {
        "norad_id": 66897,
        "name": "STARLINK-36079",
        "group": "last-30-days",
        "lat": 52.467847995248775,
        "lon": 166.016136676321,
        "alt_km": 294.2042994039066,
        "timestamp": "2025-12-14T18:52:54.244446+00:00",
        "meta_object_name": "STARLINK-36079",
        "meta_object_id": "2025-283V",
        "meta_epoch": "2025-12-13T20:00:03.000384",
        "meta_mean_motion": 15.92710643,
        "meta_eccentricity": 7.525e-05,
        "meta_inclination": 53.1545,
        "meta_ra_of_asc_node": 68.3294,
        "meta_arg_of_pericenter": 59.1805,
        "meta_mean_anomaly": 333.2505,
        "meta_ephemeris_type": 0,
        "meta_classification_type": "U",
        "meta_norad_cat_id": 66897,
        "meta_element_set_no": 999,
        "meta_rev_at_epoch": 260,
        "meta_bstar": -0.0040441841,
        "meta_mean_motion_dot": -0.01421755,
        "meta_mean_motion_ddot": 0.00058424756,
        "tle_line1": "1 66897U 25283V   25347.83336806 -.01421755  58425-3 -40442-2 0  9994",
        "tle_line2": "2 66897  53.1545  68.3294 0000752  59.1805 333.2505 15.92710643  2602"
      },
      "geometry": {
        "type": "Point",
        "coordinates": [
          166.016136676321,
          52.467847995248775
        ]
      }
    },
    {
      "type": "Feature",
      "properties": {
        "norad_id": 66898,
        "name": "STARLINK-36065",
        "group": "last-30-days",
        "lat": 51.90182734435298,
        "lon": 170.44162360434737,
        "alt_km": 294.20668551673043,
        "timestamp": "2025-12-14T18:52:54.244463+00:00",
        "meta_object_name": "STARLINK-36065",
        "meta_object_id": "2025-283W",
        "meta_epoch": "2025-12-13T20:00:03.000384",
        "meta_mean_motion": 15.92775303,
        "meta_eccentricity": 8.535e-05,
        "meta_inclination": 53.1542,
        "meta_ra_of_asc_node": 68.3234,
        "meta_arg_of_pericenter": 56.2933,
        "meta_mean_anomaly": 338.7622,
        "meta_ephemeris_type": 0,
        "meta_classification_type": "U",
        "meta_norad_cat_id": 66898,
        "meta_element_set_no": 999,
        "meta_rev_at_epoch": 260,
        "meta_bstar": -0.004104146,
        "meta_mean_motion_dot": -0.01447413,
        "meta_mean_motion_ddot": 0.00060403334,
        "tle_line1": "1 66898U 25283W   25347.83336806 -.01447413  60403-3 -41041-2 0  9999",
        "tle_line2": "2 66898  53.1542  68.3234 0000853  56.2933 338.7622 15.92775303  2600"
      },
      "geometry": {
        "type": "Point",
        "coordinates": [
          170.44162360434737,
          51.90182734435298
        ]
      }
    },
    {
      "type": "Feature",
      "properties": {
        "norad_id": 66899,
        "name": "STARLINK-36064",
        "group": "last-30-days",
        "lat": 51.23384888555355,
        "lon": 174.42485720360216,
        "alt_km": 294.21147117271084,
        "timestamp": "2025-12-14T18:52:54.244474+00:00",
        "meta_object_name": "STARLINK-36064",
        "meta_object_id": "2025-283X",
        "meta_epoch": "2025-12-13T20:00:03.000384",
        "meta_mean_motion": 15.9284472,
        "meta_eccentricity": 9.657e-05,
        "meta_inclination": 53.154,
        "meta_ra_of_asc_node": 68.3182,
        "meta_arg_of_pericenter": 62.1629,
        "meta_mean_anomaly": 335.3477,
        "meta_ephemeris_type": 0,
        "meta_classification_type": "U",
        "meta_norad_cat_id": 66899,
        "meta_element_set_no": 999,
        "meta_rev_at_epoch": 254,
        "meta_bstar": -0.0042123597,
        "meta_mean_motion_dot": -0.01490448,
        "meta_mean_motion_ddot": 0.00063770441,
        "tle_line1": "1 66899U 25283X   25347.83336806 -.01490448  63770-3 -42124-2 0  9999",
        "tle_line2": "2 66899  53.1540  68.3182 0000965  62.1629 335.3477 15.92844720  2547"
      },
      "geometry": {
        "type": "Point",
        "coordinates": [
          174.42485720360216,
          51.23384888555355
        ]
      }
    },
    {
      "type": "Feature",
      "properties": {
        "norad_id": 66900,
        "name": "STARLINK-36074",
        "group": "last-30-days",
        "lat": 50.399239947432676,
        "lon": 178.43857474047522,
        "alt_km": 294.5137125837391,
        "timestamp": "2025-12-14T18:52:54.244486+00:00",
        "meta_object_name": "STARLINK-36074",
        "meta_object_id": "2025-283Y",
        "meta_epoch": "2025-12-13T20:00:03.000384",
        "meta_mean_motion": 15.92920526,
        "meta_eccentricity": 8.428e-05,
        "meta_inclination": 53.1541,
        "meta_ra_of_asc_node": 68.3128,
        "meta_arg_of_pericenter": 58.94,
        "meta_mean_anomaly": 341.1599,
        "meta_ephemeris_type": 0,
        "meta_classification_type": "U",
        "meta_norad_cat_id": 66900,
        "meta_element_set_no": 999,
        "meta_rev_at_epoch": 260,
        "meta_bstar": -0.004366613,
        "meta_mean_motion_dot": -0.01550371,
        "meta_mean_motion_ddot": 0.00068593413,
        "tle_line1": "1 66900U 25283Y   25347.83336806 -.01550371  68593-3 -43666-2 0  9994",
        "tle_line2": "2 66900  53.1541  68.3128 0000842  58.9400 341.1599 15.92920526  2601"
      },
      "geometry": {
        "type": "Point",
        "coordinates": [
          178.43857474047522,
          50.399239947432676
        ]
      }
    }
  ]
}